#dP2024  6 14  0  0  0.00000000      96 __u+U IGS20 FIT  IAC
## 2318 432000.00000000   900.00000000 60475 0.0000000000000
+  131   C01C02C03C04C05C06C07C08C09C10C11C12C13C14C16C19C20
+        C21C22C23C24C25C26C27C28C29C30C32C33C34C35C36C37C38
+        C39C40C41C42C43C44C45C46C59C60C62E02E03E04E05E07E08
+        E09E10E11E12E13E14E15E18E19E21E25E26E27E30E31E33E34
+        E36G01G02G03G04G05G06G07G08G09G10G11G12G13G14G15G16
+        G17G18G19G20G21G22G23G24G25G26G27G28G29G30G31G32J02
+        J03J04J07R01R02R03R04R05R06R07R08R09R10R11R12R13R14
+        R15R16R17R18R19R20R21R22R23R24R25R26  0  0  0  0  0
++         0 17 17 17 17  9 10 10 10 10  9  9  9  8  9  7  7
++         7  7  7  7  7  7  7  7  7  7  7  7  7  7  8  7  9
++         9  9  7  7  7  7  8  8 18 17 17  4  4  5  4  4  4
++         5  4  4  4  4  5  4  5  5  5  4  4  4  4  6  4  4
++         4  5  4  4  4  4  4  4  4  4  4  4  4  4  4  4  4
++         4  4  4  4  4  4  4  4  4  4  4  4  4  4  4  4 11
++        11 11 17  7  6  6  6  6 15  6  6  6 15  6  6  8  6
++         6  6  6  6  7  8  6  6 15  6  8  8  0  0  0  0  0
%c M  cc GPS ccc cccc cccc cccc cccc ccccc ccccc ccccc ccccc
%c cc cc ccc ccc cccc cccc cccc cccc ccccc ccccc ccccc ccccc
%f  0.0000000  0.000000000  0.00000000000  0.000000000000000
%f  0.0000000  0.000000000  0.00000000000  0.000000000000000
%i    0    0    0    0      0      0      0      0         0
%i    0    0    0    0      0      0      0      0         0
/* INFORMATION & ANALYSIS CENTER (IAC)            RAPID DATA
/* S/V CLOCKS ARE ALIGNED TO GNSS TIME                      
/* G:C1WC2W R:C1PC2P E:C1XC5X C:C2IC6I J:C1CC2S             
/* PCV:IGS20_2317 OL/AL:FES2004  NONE     YN ORB:CoN CLK:CoN
*  2024 06 14 18 30  0.00000000
PC01      0.000000      0.000000      0.000000 999999.999999
PC02   4428.975498  41959.519602   -158.557534    773.408691
PC03 -14702.373629  39538.545712   -942.914099    414.116381
PC04 -39633.819572  14335.712696  -1353.797098   -588.161743
PC05  21973.611886  35992.426163    286.031775   -690.016198
PC06 -15365.579098  25220.276344  30077.731916    504.770144
PC07  -9781.061184  41052.131259   2991.498377   -637.974082
PC08   1446.731494  26992.864934 -32311.044369   -213.011363
PC09  -5179.728297  25190.883278  33806.935648    110.308374
PC10  -4375.684363  42114.901300  -3074.697346    -29.367635
PC11 -22092.363509  16600.934256  -3877.860555    613.517999
PC12 -23822.881060   3967.337836  14018.421178   -256.657233
PC13   6876.212352  30302.098727 -28212.301446    438.129254
PC14 -11140.347735  18039.799733 -18169.966369    911.494093
PC16 -17538.994025  24641.679509  29547.418883   -589.055030
PC19   5945.789112 -24865.629285  11163.664335   -914.231643
PC20  14120.095662 -10010.286165  21887.162743   -575.242258
PC21 -14494.402154 -12404.963168 -20342.342330   -972.219061
PC22  -6158.969420 -26359.804206  -6710.431044     28.761261
PC23  11457.501726  19162.371044  16751.127944   -787.156621
PC24 -23401.885663    714.985170  15194.435341    902.972715
PC25  -8033.992993  14241.347580  22606.772414    425.768674
PC26 -25000.806548 -12400.687414   -982.382918   -305.754240
PC27  19520.175859   3672.760861 -19627.505818    327.037938
PC28   5031.090439  15644.345929 -22553.874014    251.331724
PC29  15057.485458 -20580.863794  11322.357309    294.993997
PC30  24474.674893 -11572.210140  -6820.030497   -103.236755
PC32  14589.227398  12446.060732  20293.525862   -647.311751
PC33  -5825.800762  24899.519160 -11205.053542   -960.956676
PC34 -24260.264595  12733.996491   5232.630268    455.725344
PC35  -5252.038918 -15743.094893  22420.622974    337.998819
PC36   8243.037850 -14105.128453 -22597.350179    110.301699
PC37  24652.553324  13005.543323   1097.346285   -941.716273
PC38  -5274.513230  24686.451311 -33713.360191 999999.999999
PC39 -21757.571914  24950.012987  26029.236221     -8.728906
PC40 -16007.398512  38863.574653   5048.814624    -75.135488
PC41   5788.058641  26678.496499   5902.530525   -965.282454
PC42 -14567.316927   8205.651544 -22309.846023   -446.348955
PC43 -15777.068711  20478.040920 -10504.405999     75.342183
PC44 -19592.835380  -3143.064743  19591.444125    503.591366
PC45 -11210.410545 -19123.983159 -16960.335813    -94.379908
PC46  22994.548000  -1123.842860 -15745.409003   -156.789590
PC59 -32278.654487  27132.311755   -841.403019      0.494245
PC60   7295.207826  41511.303396  -1343.640114     -0.912822
PC62 -39611.967177  14450.276273   1247.822742     -0.838946
PE02   8572.817294  27096.551929   8253.574473    135.486120
PE03  -1829.048613  24954.664164  15829.858732   -120.386760
PE04 -13763.689949  -9957.630702 -24228.775065   -421.289938
PE05 -15948.464437  24886.485824  -1667.093693   4757.001880
PE07  20825.501084  -9895.216728  18561.189240   -125.761483
PE08  13067.066841  10792.388493  24272.882887   -286.949193
PE09 -20729.704014   9895.782319 -18675.211095   -479.695943
PE10 -28906.068736  -3609.954961   5253.218516   -632.722033
PE11 -28972.031419   3054.240047  -5219.610483   2636.244504
PE12 -24538.496394  -9167.552225  13756.564240  -1081.946141
PE13  29117.240744  -2679.674658   4625.714248    -22.255309
PE14 -18167.100670  -1491.244846  19217.437577     73.219395
PE15  24173.517299   9405.076559 -14268.447978   -108.877890
PE18  14021.466249  14034.704392 -22782.689304    225.665441
PE19   3672.836068 -25607.181462 -14369.144989    117.622663
PE21   6643.645825 -18910.482469 -21778.868677   -599.997636
PE25  -6972.110551  18585.847020  21963.834701      5.734808
PE26  16414.538478 -13333.391936  20708.644413    483.797181
PE27  18601.538930    656.093887 -23011.194996   -375.179536
PE30  19390.917197  19700.809405 -10583.551794   -404.910879
PE31 -19455.678713 -19589.998942  10677.536462    -26.404349
PE33  -4554.161354 -15835.552787  24586.215256     12.788906
PE34   5147.994438  15790.113623 -24511.454359   -117.002162
PE36 -16961.998903  12989.172946 -20488.330748   -241.220983
PG01 -14252.247270   5623.374261  21343.259260    259.109464
PG02   7432.114280  13743.204534 -21046.983648   -417.739447
PG03  12499.080422  23400.048279  -2450.232868    413.403699
PG04   3271.990794  19204.376238  18009.988915    383.157688
PG05  -1601.051120 -21194.660219  15690.871189   -176.317841
PG06  24958.165228  -5407.549357   7563.972373    218.586375
PG07  23719.484725   6985.810795  10816.502683    -93.139864
PG08  -4184.636906  24175.346418  -9719.892434    229.637835
PG09  12893.677616   8182.895000  21646.360703    234.711060
PG10 -16662.954137  -1009.104199 -20532.769684    -42.883989
PG11  15258.741260 -12202.776169  17989.673828   -685.402408
PG12  -9418.690775 -24500.434724  -4507.931796   -514.082751
PG13  13234.126483 -22577.456571  -3917.620439    657.906822
PG14  18388.475084   4792.686066 -18604.309008    425.388789
PG15    836.950811 -24674.833338 -10034.075716    170.135540
PG16  -3707.788251  19332.629174  17280.577720   -264.323408
PG17  18249.342335  -6108.734584 -17959.365882    694.550760
PG18 -24070.544122  -6215.971149   9640.908850   -624.887688
PG19  19254.021873 -13445.132207 -12184.086608    496.410302
PG20   6069.730783 -15377.854832  20878.901969    373.840668
PG21   1986.171840  14862.114520 -21479.871400    115.462748
PG22  14771.453018  -3741.048933 -21312.036247    -27.265234
PG23 -19192.849703 -12418.060540 -13670.745687    250.282539
PG24  -5343.483669 -15334.806813 -21475.199811   -477.681626
PG25 -16665.125643 -20382.192552   4110.370820    497.334654
PG26 -13182.140902   8706.572388  21205.335186    136.985918
PG27 -12510.198626  23153.378246    454.357671    -28.200991
PG28 -25612.993587   5064.560501   4864.584940   -288.786404
PG29  -9912.953279 -11845.050818  21539.513883   -594.223188
PG30  26697.931954   -708.645463    177.981604   -374.278542
PG31 -19880.245706  10362.884134  14324.574967   -227.394775
PG32 -18032.006878   8827.183645 -17073.778217   -616.225567
PJ02 -26596.040568  23680.168865  27774.913055     -0.334937
PJ03 -33311.028558  19348.916123 -12323.285024      0.593148
PJ04 -19789.181706  31745.321732 -14528.507488     50.354136
PJ07 -25400.256674  33659.391030      9.147819     -0.024900
PR01  -3718.164567 -22217.561148 -11949.650898     88.394800
PR02  -9442.104088  -7919.923076 -22297.101504    -23.291118
PR03 -10802.358793  11315.699217 -20081.416809    102.075729
PR04  -6280.358972  23701.210500  -6985.921688    241.083782
PR05   1536.224704  23462.599527   9879.387819    133.088631
PR06  10215.749348   6105.412861  22550.199127   -167.637353
PR07  10758.238992 -12117.180793  19758.544668     84.569265
PR08   6075.577173 -23838.319730   6864.404061     -4.967638
PR09  21885.134577  12216.390895  -4952.826101    192.214483
PR10  18026.636124   2404.580846 -17852.703219   -176.755048
PR11   3847.025431 -10620.543501 -22855.183842     21.422879
PR12 -13691.705224 -17514.914983 -12487.625999     41.314079
PR13 -21279.264198 -13856.927776   2413.183193    -48.348342
PR14 -16801.749179   -644.206342  19189.548303     26.580176
PR15  -2444.002888  11691.842221  22563.392708     78.816906
PR16  13637.054292  17401.271663  12772.688219     26.491096
PR17 -23580.211830   9780.749512    409.123187     95.833653
PR18 -15272.671517  13659.547409 -15153.221792    147.012018
PR19  -1303.210343  11368.141646 -22804.755678   -280.313768
PR20  18715.176874   1286.168617 -17302.424755   -114.497642
PR21  23671.740076  -9434.935660   -712.962874   -109.256659
PR22  14573.520590 -13610.463281  15934.789378    102.719822
PR23  -2371.298628 -10295.595347  23202.930587   -123.869301
PR24 -19225.318486   -464.460010  16778.635355    -59.837485
PR25  23870.068325  -8960.110045   -105.125800    -54.964547
PR26   6430.586116 -23317.861083   8079.971335     -6.312239
EOF
